[{"OBJECT_NAME":"STARLINK-31234","OBJECT_ID":"2024-038W","EPOCH":"2026-03-09T05:10:35.702400","MEAN_MOTION":15.27568027,"ECCENTRICITY":7.755e-5,"INCLINATION":43.0028,"RA_OF_ASC_NODE":26.4213,"ARG_OF_PERICENTER":289.2541,"MEAN_ANOMALY":70.8227,"EPHEMERIS_TYPE":0,"CLASSIFICATION_TYPE":"U","NORAD_CAT_ID":59043,"ELEMENT_SET_NO":999,"REV_AT_EPOCH":11461,"BSTAR":1.8223639e-5,"MEAN_MOTION_DOT":2.39e-6,"MEAN_MOTION_DDOT":0},{"OBJECT_NAME":"VSP ROSE","OBJECT_ID":"2024-043AC","EPOCH":"2026-03-09T21:48:06.922944","MEAN_MOTION":15.27746075,"ECCENTRICITY":0.00099339,"INCLINATION":97.5443,"RA_OF_ASC_NODE":203.927,"ARG_OF_PERICENTER":232.2702,"MEAN_ANOMALY":127.7637,"EPHEMERIS_TYPE":0,"CLASSIFICATION_TYPE":"U","NORAD_CAT_ID":59124,"ELEMENT_SET_NO":999,"REV_AT_EPOCH":11182,"BSTAR":0.00025731354,"MEAN_MOTION_DOT":6.907e-5,"MEAN_MOTION_DDOT":0}]
